SL-16 R/B               
1 23405U 94077B   26175.18711094  .00000252  00000+0  15345-3 0  9992
2 23405  70.9824 128.4359 0003273 322.2253  37.8639 14.15575901631309
ARIANE 40+ R/B          
1 23561U 95021B   26175.21264611  .00000201  00000+0  77928-4 0  9997
2 23561  98.4407 245.1860 0006908 172.5766 251.4627 14.39836732634572
SL-16 R/B               
1 23705U 95058B   26175.12855077  .00000053  00000+0  51490-4 0  9990
2 23705  71.0228 316.7837 0014190 310.8679  49.1214 14.15511847582916
SL-16 R/B               
1 24298U 96051B   26175.11331620  .00000125  00000+0  94160-4 0  9995
2 24298  70.7648 309.9900 0016051 326.8070  33.2041 14.12448261536671
ORBVIEW 2 (SEASTAR)     
1 24883U 97037A   26175.19898777  .00000204  00000+0  87026-4 0  9990
2 24883  98.8693 342.4124 0003303 102.4719 257.6835 14.35556324523759
SL-16 R/B               
1 25400U 98043G   26175.09852008  .00000030  00000+0  31666-4 0  9996
2 25400  98.8366 129.3173 0010909  68.4168 291.8172 14.26069599454151
SL-16 R/B               
1 25407U 98045B   26175.08726112  .00000106  00000+0  77596-4 0  9996
2 25407  71.0118 317.8176 0009072 232.6910 127.3387 14.16202560442167
ISS (ZARYA)             
1 25544U 98067A   26175.15560926  .00007363  00000+0  13975-3 0  9991
2 25544  51.6326 265.6000 0004427 224.4953 135.5681 15.49396189572839
CZ-4B R/B               
1 25732U 99025C   26175.12232375  .00000014  00000+0  27312-4 0  9993
2 25732  98.6480 216.7862 0037782  40.1438  21.2457 14.18284429403253
OKEAN-O                 
1 25860U 99039A   26175.17385656  .00000478  00000+0  69348-4 0  9995
2 25860  97.9312 233.8915 0001426  70.6435 289.4931 14.80474466450147
SL-16 R/B               
1 25861U 99039B   26175.12161068  .00000352  00000+0  51286-4 0  9993
2 25861  97.9834 233.9649 0013368 272.1153  87.8529 14.81850771452622
DELTA 2 R/B             
1 25876U 99041E   26174.89963709  .00000526  00000+0  12283-3 0  9993
2 25876  51.7641 236.9826 0500918 301.8589  53.4512 14.12024661378035
HELIOS 1B               
1 25977U 99064A   26175.17207414  .00001159  00000+0  13263-3 0  9998
2 25977  98.1611  80.5138 0002508  81.8007 278.3493 14.88022497701090
TERRA                   
1 25994U 99068A   26175.20430418  .00000298  00000+0  69675-4 0  9999
2 25994  97.9452 224.4723 0002134 168.7843 232.0602 14.61107812410638
SL-16 R/B               
1 26070U 00006B   26175.20091856  .00000290  00000+0  17137-3 0  9995
2 26070  71.0014 233.8780 0015964  12.1480 348.0025 14.15836753363638
TITAN 4B R/B            
1 26474U 00047B   26175.21304444  .00002393  00000+0  15087-3 0  9997
2 26474  67.9886 100.7966 0045941 279.8561  79.7403 15.10231715408995
ENVISAT                 
1 27386U 02009A   26175.12288787  .00000058  00000+0  32555-4 0  9997
2 27386  98.3837 126.2868 0001406  88.2995 282.5267 14.39066168274482
IDEFIX & ARIANE 42P R/B 
1 27422U 02021B   26175.05136366  .00000146  00000+0  72020-4 0  9998
2 27422  98.5942 112.4602 0010729 231.4443 128.5779 14.31084734259237
AQUA                    
1 27424U 02022A   26175.24942111  .00000636  00000+0  13620-3 0  9999
2 27424  98.4280 144.6735 0000850  59.7757  53.2863 14.62167261284305
CZ-4B R/B               
1 27432U 02024C   26175.17385939  .00000015  00000+0  30415-4 0  9994
2 27432  98.8696 227.9486 0051211  80.8242 349.1170 14.14565351244299
MIDORI II (ADEOS-II)    
1 27597U 02056A   26175.13821615  .00000188  00000+0  91609-4 0  9996
2 27597  98.7881 134.4572 0002134  67.9759 292.1649 14.29352754225501
H-2A R/B                
1 27601U 02056E   26175.11991495  .00000152  00000+0  67739-4 0  9992
2 27601  98.3314 131.5418 0069534 203.6446 166.6044 14.33824597229366
CZ-4B R/B               
1 28059U 03049C   26175.24513324  .00000243  00000+0  67413-4 0  9998
2 28059  98.6898 174.3727 0046877 266.4898  93.0936 14.55104066202095
CZ-2C R/B               
1 28222U 04012C   26175.19195780  .00095152  00000+0  50348-3 0  9998
2 28222  97.7076 251.6758 0010103 256.3700 103.6442 15.80240559221000
SL-16 R/B               
1 28353U 04021B   26175.23249553 -.00000003  00000+0  23247-4 0  9997
2 28353  71.0004   8.9026 0006964 245.5542 114.4854 14.14606940137904
CZ-4B R/B               
1 28415U 04035C   26175.06215566  .00006495  00000+0  21861-3 0  9998
2 28415  97.3369 208.0582 0029250 312.4780  47.3989 15.30709726196171
CZ-2C R/B               
1 28480U 04046B   26175.20321816  .00000046  00000+0  32290-4 0  9999
2 28480  98.1940  83.5456 0138867 199.4034 160.1831 14.27027818123690
ARIANE 5 R/B            
1 28499U 04049H   26175.20301486  .00000480  00000+0  59387-4 0  9991
2 28499  98.2726 347.7269 0083982   6.8046 353.4287 14.85456296161606
CZ-2D R/B               
1 28738U 05024B   26175.03963349  .00055926  00000+0  46033-3 0  9992
2 28738  97.3485 194.8126 0002091  35.3146 324.8254 15.70234107156416
ALOS (DAICHI)           
1 28931U 06002A   26174.62480585  .00000743  00000+0  13194-3 0  9993
2 28931  98.1324 130.1721 0001226  58.6228 301.5098 14.70060559 89043
