OBJECT_NAME,OBJECT_ID,EPOCH,MEAN_MOTION,ECCENTRICITY,INCLINATION,RA_OF_ASC_NODE,ARG_OF_PERICENTER,MEAN_ANOMALY,EPHEMERIS_TYPE,CLASSIFICATION_TYPE,NORAD_CAT_ID,ELEMENT_SET_NO,REV_AT_EPOCH,BSTAR,MEAN_MOTION_DOT,MEAN_MOTION_DDOT
SL-16 R/B,1994-077B,2026-06-24T04:29:26.385216,14.15575901,.00032731,70.9824,128.4359,322.2253,37.8639,0,U,23405,999,63130,.15344859E-3,.252E-5,0
ARIANE 40+ R/B,1995-021B,2026-06-24T05:06:12.623904,14.39836732,.00069081,98.4407,245.1860,172.5766,251.4627,0,U,23561,999,63457,.77928415E-4,.201E-5,0
SL-16 R/B,1995-058B,2026-06-24T03:05:06.786528,14.15511847,.00141903,71.0228,316.7837,310.8679,49.1214,0,U,23705,999,58291,.51489622E-4,.53E-6,0
SL-16 R/B,1996-051B,2026-06-24T02:43:10.519680,14.12448261,.00160512,70.7648,309.9900,326.8070,33.2041,0,U,24298,999,53667,.94159628E-4,.125E-5,0
ORBVIEW 2 (SEASTAR),1997-037A,2026-06-24T04:46:32.543328,14.35556324,.00033031,98.8693,342.4124,102.4719,257.6835,0,U,24883,999,52375,.87026265E-4,.204E-5,0
SL-16 R/B,1998-043G,2026-06-24T02:21:52.134912,14.26069599,.00109096,98.8366,129.3173,68.4168,291.8172,0,U,25400,999,45415,.31666183E-4,.3E-6,0
SL-16 R/B,1998-045B,2026-06-24T02:05:39.360768,14.16202560,.00090729,71.0118,317.8176,232.6910,127.3387,0,U,25407,999,44216,.7759635E-4,.106E-5,0
ISS (ZARYA),1998-067A,2026-06-24T03:44:04.640064,15.49396189,.0004427,51.6326,265.6000,224.4953,135.5681,0,U,25544,999,57283,.13974885E-3,.7363E-4,0
CZ-4B R/B,1999-025C,2026-06-24T02:56:08.772000,14.18284429,.0037782,98.6480,216.7862,40.1438,21.2457,0,U,25732,999,40325,.27312106E-4,.14E-6,0
OKEAN-O,1999-039A,2026-06-24T04:10:21.206784,14.80474466,.00014268,97.9312,233.8915,70.6435,289.4931,0,U,25860,999,45014,.69348058E-4,.478E-5,0
SL-16 R/B,1999-039B,2026-06-24T02:55:07.162752,14.81850771,.00133688,97.9834,233.9649,272.1153,87.8529,0,U,25861,999,45262,.5128599E-4,.352E-5,0
DELTA 2 R/B,1999-041E,2026-06-23T21:35:28.644576,14.12024661,.05009186,51.7641,236.9826,301.8589,53.4512,0,U,25876,999,37803,.12282631E-3,.526E-5,0
HELIOS 1B,1999-064A,2026-06-24T04:07:47.205696,14.88022497,.00025083,98.1611,80.5138,81.8007,278.3493,0,U,25977,999,70109,.1326311E-3,.1159E-4,0
TERRA,1999-068A,2026-06-24T04:54:11.881152,14.61107812,.00021345,97.9452,224.4723,168.7843,232.0602,0,U,25994,999,41063,.69674822E-4,.298E-5,0
SL-16 R/B,2000-006B,2026-06-24T04:49:19.363584,14.15836753,.00159643,71.0014,233.8780,12.1480,348.0025,0,U,26070,999,36363,.17136761E-3,.29E-5,0
TITAN 4B R/B,2000-047B,2026-06-24T05:06:47.039616,15.10231715,.00459418,67.9886,100.7966,279.8561,79.7403,0,U,26474,999,40899,.15086527E-3,.2393E-4,0
ENVISAT,2002-009A,2026-06-24T02:56:57.511968,14.39066168,.00014068,98.3837,126.2868,88.2995,282.5267,0,U,27386,999,27448,.32554867E-4,.58E-6,0
IDEFIX & ARIANE 42P R/B,2002-021B,2026-06-24T01:13:57.820224,14.31084734,.00107295,98.5942,112.4602,231.4443,128.5779,0,U,27422,999,25923,.72019696E-4,.146E-5,0
AQUA,2002-022A,2026-06-24T05:59:09.983904,14.62167261,.00008507,98.4280,144.6735,59.7757,53.2863,0,U,27424,999,28430,.13620253E-3,.636E-5,0
CZ-4B R/B,2002-024C,2026-06-24T04:10:21.451296,14.14565351,.00512118,98.8696,227.9486,80.8242,349.1170,0,U,27432,999,24429,.30414598E-4,.15E-6,0
MIDORI II (ADEOS-II),2002-056A,2026-06-24T03:19:01.875360,14.29352754,.00021345,98.7881,134.4572,67.9759,292.1649,0,U,27597,999,22550,.91608684E-4,.188E-5,0
H-2A R/B,2002-056E,2026-06-24T02:52:40.651680,14.33824597,.00695345,98.3314,131.5418,203.6446,166.6044,0,U,27601,999,22936,.67739431E-4,.152E-5,0
CZ-4B R/B,2003-049C,2026-06-24T05:52:59.511936,14.55104066,.0046877,98.6898,174.3727,266.4898,93.0936,0,U,28059,999,20209,.67412995E-4,.243E-5,0
CZ-2C R/B,2004-012C,2026-06-24T04:36:25.153920,15.80240559,.00101034,97.7076,251.6758,256.3700,103.6442,0,U,28222,999,22100,.50348075E-3,.95152E-3,0
SL-16 R/B,2004-021B,2026-06-24T05:34:47.613792,14.14606940,.00069643,71.0004,8.9026,245.5542,114.4854,0,U,28353,999,13790,.23247316E-4,-.3E-7,0
CZ-4B R/B,2004-035C,2026-06-24T01:29:30.249024,15.30709726,.00292509,97.3369,208.0582,312.4780,47.3989,0,U,28415,999,19617,.2186053E-3,.6495E-4,0
CZ-2C R/B,2004-046B,2026-06-24T04:52:38.049024,14.27027818,.01388673,98.1940,83.5456,199.4034,160.1831,0,U,28480,999,12369,.32289557E-4,.46E-6,0
ARIANE 5 R/B,2004-049H,2026-06-24T04:52:20.483904,14.85456296,.00839828,98.2726,347.7269,6.8046,353.4287,0,U,28499,999,16160,.59386918E-4,.48E-5,0
CZ-2D R/B,2005-024B,2026-06-24T00:57:04.333536,15.70234107,.00020919,97.3485,194.8126,35.3146,324.8254,0,U,28738,999,15641,.46032507E-3,.55926E-3,0
ALOS (DAICHI),2006-002A,2026-06-23T14:59:43.225440,14.70060559,.00012263,98.1324,130.1721,58.6228,301.5098,0,U,28931,999,8904,.13194489E-3,.743E-5,0
